[{"OBJECT_NAME":"OBJECT C","OBJECT_ID":"2025-226C","EPOCH":"2026-03-09T22:35:45.758112","MEAN_MOTION":15.1432456,"ECCENTRICITY":0.00153316,"INCLINATION":97.6396,"RA_OF_ASC_NODE":148.5375,"ARG_OF_PERICENTER":120.7219,"MEAN_ANOMALY":239.5525,"EPHEMERIS_TYPE":0,"CLASSIFICATION_TYPE":"U","NORAD_CAT_ID":65940,"ELEMENT_SET_NO":999,"REV_AT_EPOCH":2265,"BSTAR":0.00059133816,"MEAN_MOTION_DOT":0.00010804,"MEAN_MOTION_DDOT":0},{"OBJECT_NAME":"CZ-2C R\/B","OBJECT_ID":"2026-009B","EPOCH":"2026-03-09T17:37:38.663328","MEAN_MOTION":15.03346126,"ECCENTRICITY":0.00989033,"INCLINATION":97.1689,"RA_OF_ASC_NODE":139.2821,"ARG_OF_PERICENTER":40.6367,"MEAN_ANOMALY":320.2186,"EPHEMERIS_TYPE":0,"CLASSIFICATION_TYPE":"U","NORAD_CAT_ID":67475,"ELEMENT_SET_NO":999,"REV_AT_EPOCH":808,"BSTAR":0.00028478769,"MEAN_MOTION_DOT":4.245e-5,"MEAN_MOTION_DDOT":0}]
